{
  "type": "FeatureCollection",
  "features": [
    {
      "type": "Feature",
      "properties": {
        "norad_id": 31558,
        "name": "FENGYUN 1C DEB",
        "group": "fengyun-1c-debris",
        "lat": 69.26983938120564,
        "lon": -145.42274712191903,
        "alt_km": 896.2031106733657,
        "timestamp": "2025-12-09T09:46:47.929213+00:00",
        "meta_object_name": "FENGYUN 1C DEB",
        "meta_object_id": "1999-025BYZ",
        "meta_epoch": "2025-12-08T23:30:27.835776",
        "meta_mean_motion": 14.38685966,
        "meta_eccentricity": 0.02108072,
        "meta_inclination": 98.7901,
        "meta_ra_of_asc_node": 238.2703,
        "meta_arg_of_pericenter": 273.4853,
        "meta_mean_anomaly": 101.3098,
        "meta_ephemeris_type": 0,
        "meta_classification_type": "U",
        "meta_norad_cat_id": 31558,
        "meta_element_set_no": 999,
        "meta_rev_at_epoch": 97381,
        "meta_bstar": 0.00044329991,
        "meta_mean_motion_dot": 1.704e-05,
        "meta_mean_motion_ddot": 0,
        "tle_line1": "1 31558U 99025BYZ 25342.97948884  .00001704  00000+0  44330-3 0  9998",
        "tle_line2": "2 31558  98.7901 238.2703 0210807 273.4853 101.3098 14.38685966973819"
      },
      "geometry": {
        "type": "Point",
        "coordinates": [
          -145.42274712191903,
          69.26983938120564
        ]
      }
    },
    {
      "type": "Feature",
      "properties": {
        "norad_id": 31559,
        "name": "FENGYUN 1C DEB",
        "group": "fengyun-1c-debris",
        "lat": -2.5329279604316013,
        "lon": -62.33678353509249,
        "alt_km": 719.2282980371219,
        "timestamp": "2025-12-09T09:46:47.929226+00:00",
        "meta_object_name": "FENGYUN 1C DEB",
        "meta_object_id": "1999-025BZA",
        "meta_epoch": "2025-12-07T20:11:11.324256",
        "meta_mean_motion": 14.6345957,
        "meta_eccentricity": 0.0054071,
        "meta_inclination": 98.8676,
        "meta_ra_of_asc_node": 295.584,
        "meta_arg_of_pericenter": 209.0868,
        "meta_mean_anomaly": 180.4001,
        "meta_ephemeris_type": 0,
        "meta_classification_type": "U",
        "meta_norad_cat_id": 31559,
        "meta_element_set_no": 999,
        "meta_rev_at_epoch": 97485,
        "meta_bstar": 0.0026322994,
        "meta_mean_motion_dot": 0.0001389,
        "meta_mean_motion_ddot": 0,
        "tle_line1": "1 31559U 99025BZA 25341.84110329  .00013890  00000+0  26323-2 0  9999",
        "tle_line2": "2 31559  98.8676 295.5840 0054071 209.0868 180.4001 14.63459570974853"
      },
      "geometry": {
        "type": "Point",
        "coordinates": [
          -62.33678353509249,
          -2.5329279604316013
        ]
      }
    },
    {
      "type": "Feature",
      "properties": {
        "norad_id": 31560,
        "name": "FENGYUN 1C DEB",
        "group": "fengyun-1c-debris",
        "lat": 80.16884972194995,
        "lon": -99.67126751596452,
        "alt_km": 876.1371563978482,
        "timestamp": "2025-12-09T09:46:47.929236+00:00",
        "meta_object_name": "FENGYUN 1C DEB",
        "meta_object_id": "1999-025BZB",
        "meta_epoch": "2025-12-07T21:51:13.190976",
        "meta_mean_motion": 14.21219914,
        "meta_eccentricity": 0.01201375,
        "meta_inclination": 98.5896,
        "meta_ra_of_asc_node": 18.1552,
        "meta_arg_of_pericenter": 322.5476,
        "meta_mean_anomaly": 36.7374,
        "meta_ephemeris_type": 0,
        "meta_classification_type": "U",
        "meta_norad_cat_id": 31560,
        "meta_element_set_no": 999,
        "meta_rev_at_epoch": 96550,
        "meta_bstar": 9.2910705e-05,
        "meta_mean_motion_dot": 1.74e-06,
        "meta_mean_motion_ddot": 0,
        "tle_line1": "1 31560U 99025BZB 25341.91056934  .00000174  00000+0  92911-4 0  9999",
        "tle_line2": "2 31560  98.5896  18.1552 0120137 322.5476  36.7374 14.21219914965506"
      },
      "geometry": {
        "type": "Point",
        "coordinates": [
          -99.67126751596452,
          80.16884972194995
        ]
      }
    },
    {
      "type": "Feature",
      "properties": {
        "norad_id": 31561,
        "name": "FENGYUN 1C DEB",
        "group": "fengyun-1c-debris",
        "lat": -37.09826324576917,
        "lon": -13.744846626704762,
        "alt_km": 916.8112408149182,
        "timestamp": "2025-12-09T09:46:47.929247+00:00",
        "meta_object_name": "FENGYUN 1C DEB",
        "meta_object_id": "1999-025BZC",
        "meta_epoch": "2025-12-08T17:41:25.774368",
        "meta_mean_motion": 14.0276163,
        "meta_eccentricity": 0.00563562,
        "meta_inclination": 98.717,
        "meta_ra_of_asc_node": 338.9507,
        "meta_arg_of_pericenter": 194.2031,
        "meta_mean_anomaly": 344.2099,
        "meta_ephemeris_type": 0,
        "meta_classification_type": "U",
        "meta_norad_cat_id": 31561,
        "meta_element_set_no": 999,
        "meta_rev_at_epoch": 95122,
        "meta_bstar": 0.0008895408,
        "meta_mean_motion_dot": 1.353e-05,
        "meta_mean_motion_ddot": 0,
        "tle_line1": "1 31561U 99025BZC 25342.73710387  .00001353  00000+0  88954-3 0  9991",
        "tle_line2": "2 31561  98.7170 338.9507 0056356 194.2031 344.2099 14.02761630951220"
      },
      "geometry": {
        "type": "Point",
        "coordinates": [
          -13.744846626704762,
          -37.09826324576917
        ]
      }
    },
    {
      "type": "Feature",
      "properties": {
        "norad_id": 31562,
        "name": "FENGYUN 1C DEB",
        "group": "fengyun-1c-debris",
        "lat": 52.95678111079913,
        "lon": 122.19070512247426,
        "alt_km": 767.4870774616084,
        "timestamp": "2025-12-09T09:46:47.929265+00:00",
        "meta_object_name": "FENGYUN 1C DEB",
        "meta_object_id": "1999-025BZD",
        "meta_epoch": "2025-12-07T09:14:15.747072",
        "meta_mean_motion": 14.42012956,
        "meta_eccentricity": 0.00570563,
        "meta_inclination": 99.2582,
        "meta_ra_of_asc_node": 132.4799,
        "meta_arg_of_pericenter": 299.0889,
        "meta_mean_anomaly": 60.4592,
        "meta_ephemeris_type": 0,
        "meta_classification_type": "U",
        "meta_norad_cat_id": 31562,
        "meta_element_set_no": 999,
        "meta_rev_at_epoch": 96913,
        "meta_bstar": 0.001553202,
        "meta_mean_motion_dot": 5.148e-05,
        "meta_mean_motion_ddot": 0,
        "tle_line1": "1 31562U 99025BZD 25341.38490448  .00005148  00000+0  15532-2 0  9992",
        "tle_line2": "2 31562  99.2582 132.4799 0057056 299.0889  60.4592 14.42012956969135"
      },
      "geometry": {
        "type": "Point",
        "coordinates": [
          122.19070512247426,
          52.95678111079913
        ]
      }
    },
    {
      "type": "Feature",
      "properties": {
        "norad_id": 31563,
        "name": "FENGYUN 1C DEB",
        "group": "fengyun-1c-debris",
        "lat": 10.332468257753748,
        "lon": -41.751108357094516,
        "alt_km": 663.3296815698404,
        "timestamp": "2025-12-09T09:46:47.929278+00:00",
        "meta_object_name": "FENGYUN 1C DEB",
        "meta_object_id": "1999-025BZE",
        "meta_epoch": "2025-12-08T21:32:55.703616",
        "meta_mean_motion": 14.65258344,
        "meta_eccentricity": 0.01140091,
        "meta_inclination": 98.9515,
        "meta_ra_of_asc_node": 136.0476,
        "meta_arg_of_pericenter": 90.6797,
        "meta_mean_anomaly": 270.7468,
        "meta_ephemeris_type": 0,
        "meta_classification_type": "U",
        "meta_norad_cat_id": 31563,
        "meta_element_set_no": 999,
        "meta_rev_at_epoch": 98488,
        "meta_bstar": 0.00076846862,
        "meta_mean_motion_dot": 4.498e-05,
        "meta_mean_motion_ddot": 0,
        "tle_line1": "1 31563U 99025BZE 25342.89786694  .00004498  00000+0  76847-3 0  9995",
        "tle_line2": "2 31563  98.9515 136.0476 0114009  90.6797 270.7468 14.65258344984880"
      },
      "geometry": {
        "type": "Point",
        "coordinates": [
          -41.751108357094516,
          10.332468257753748
        ]
      }
    },
    {
      "type": "Feature",
      "properties": {
        "norad_id": 31565,
        "name": "FENGYUN 1C DEB",
        "group": "fengyun-1c-debris",
        "lat": 63.523224168883964,
        "lon": -167.64568357287382,
        "alt_km": 724.0744567310458,
        "timestamp": "2025-12-09T09:46:47.929289+00:00",
        "meta_object_name": "FENGYUN 1C DEB",
        "meta_object_id": "1999-025BZG",
        "meta_epoch": "2025-11-29T09:07:25.735008",
        "meta_mean_motion": 14.38541647,
        "meta_eccentricity": 0.00553237,
        "meta_inclination": 100.7173,
        "meta_ra_of_asc_node": 202.2097,
        "meta_arg_of_pericenter": 58.3475,
        "meta_mean_anomaly": 302.3085,
        "meta_ephemeris_type": 0,
        "meta_classification_type": "U",
        "meta_norad_cat_id": 31565,
        "meta_element_set_no": 999,
        "meta_rev_at_epoch": 64161,
        "meta_bstar": 0.0030186467,
        "meta_mean_motion_dot": 9.348e-05,
        "meta_mean_motion_ddot": 0,
        "tle_line1": "1 31565U 99025BZG 25333.38015897  .00009348  00000+0  30186-2 0  9995",
        "tle_line2": "2 31565 100.7173 202.2097 0055323  58.3475 302.3085 14.38541647641615"
      },
      "geometry": {
        "type": "Point",
        "coordinates": [
          -167.64568357287382,
          63.523224168883964
        ]
      }
    }
  ]
}